{
    "links": {
        "self": "http://www.neowsapp.com/rest/v1/neo/3767314?api_key=iIulBulltgU6a56xZRHN4H3l9WmuAYTsLGpBGhQ2"
    },
    "id": "3767314",
    "neo_reference_id": "3767314",
    "name": "(2017 BX32)",
    "designation": "2017 BX32",
    "nasa_jpl_url": "http://ssd.jpl.nasa.gov/sbdb.cgi?sstr=3767314",
    "absolute_magnitude_h": 23.9,
    "estimated_diameter": {
        "kilometers": {
            "estimated_diameter_min": 0.04411182,
            "estimated_diameter_max": 0.0986370281
        },
        "meters": {
            "estimated_diameter_min": 44.1118199997,
            "estimated_diameter_max": 98.6370281305
        },
        "miles": {
            "estimated_diameter_min": 0.0274098057,
            "estimated_diameter_max": 0.0612901888
        },
        "feet": {
            "estimated_diameter_min": 144.7238235278,
            "estimated_diameter_max": 323.6123073718
        }
    },
    "is_potentially_hazardous_asteroid": false,
    "close_approach_data": [
        {
            "close_approach_date": "2017-02-20",
            "close_approach_date_full": "2017-Feb-20 12:33",
            "epoch_date_close_approach": 1487593980000,
            "relative_velocity": {
                "kilometers_per_second": "2.7523156882",
                "kilometers_per_hour": "9908.3364774267",
                "miles_per_hour": "6156.6549628766"
            },
            "miss_distance": {
                "astronomical": "0.2099020509",
                "lunar": "81.6518978001",
                "kilometers": "31400899.723271583",
                "miles": "19511614.3224625254"
            },
            "orbiting_body": "Earth"
        }
    ],
    "orbital_data": {
        "orbit_id": "6",
        "orbit_determination_date": "2017-04-06 08:20:32",
        "first_observation_date": "2017-01-29",
        "last_observation_date": "2017-02-25",
        "data_arc_in_days": 27,
        "observations_used": 29,
        "orbit_uncertainty": "7",
        "minimum_orbit_intersection": ".207739",
        "jupiter_tisserand_invariant": "4.158",
        "epoch_osculation": "2459000.5",
        "eccentricity": ".2935858196471409",
        "semi_major_axis": "1.694452331395292",
        "inclination": "4.927306159734667",
        "ascending_node_longitude": "154.7381582989838",
        "orbital_period": "805.6426706095167",
        "perihelion_distance": "1.196985154829597",
        "perihelion_argument": "356.8099376891145",
        "aphelion_distance": "2.191919507960988",
        "perihelion_time": "2458611.919547046273",
        "mean_anomaly": "173.6364869520967",
        "mean_motion": ".4468482282941127",
        "equinox": "J2000",
        "orbit_class": {
            "orbit_class_type": "AMO",
            "orbit_class_description": "Near-Earth asteroid orbits similar to that of 1221 Amor",
            "orbit_class_range": "1.017 AU < q (perihelion) < 1.3 AU"
        }
    },
    "is_sentry_object": false
}